OBJECT_NAME,OBJECT_ID,EPOCH,MEAN_MOTION,ECCENTRICITY,INCLINATION,RA_OF_ASC_NODE,ARG_OF_PERICENTER,MEAN_ANOMALY,EPHEMERIS_TYPE,CLASSIFICATION_TYPE,NORAD_CAT_ID,ELEMENT_SET_NO,REV_AT_EPOCH,BSTAR,MEAN_MOTION_DOT,MEAN_MOTION_DDOT
STARLINK-3281,2021-125AD,2026-07-08T21:10:19.531200,15.09341235,.00013859,53.1606,64.8128,93.8365,266.2786,0,U,50183,999,25494,.61684201E-3,.9678E-4,0
STARLINK-3279,2021-125AF,2026-07-09T00:00:02.000160,15.25096852,.00019965,53.1600,63.7483,64.5123,91.3197,0,U,50185,999,561,.19495292E-2,.49419E-3,0
STARLINK-3274,2021-125AG,2026-07-09T00:00:02.000160,15.29354962,.00009871,53.1584,72.9289,97.1944,45.5769,0,U,50186,999,581,.17532776E-3,.4707E-4,0
STARLINK-3272,2021-125AH,2026-07-08T20:37:49.173888,15.12638753,.00017134,53.2153,53.6866,79.1504,280.9683,0,U,50187,999,25503,.70214444E-3,.12135E-3,0
STARLINK-3276,2021-125AK,2026-07-08T21:34:42.652992,15.17358903,.00037536,53.2110,58.9687,125.6115,234.5231,0,U,50189,999,25502,.94096013E-3,.18749E-3,0
STARLINK-3268,2021-125AL,2026-07-08T20:59:54.828960,15.35407512,.00011563,53.1605,51.5653,103.7364,256.3768,0,U,50190,999,25507,.66182455E-4,.1929E-4,0
STARLINK-3273,2021-125AM,2026-07-09T00:00:02.000160,15.17098357,.00009949,53.1606,74.0948,24.7115,97.5299,0,U,50191,999,566,.16544378E-2,.33019E-3,0
STARLINK-3259,2021-125AN,2026-07-08T22:03:47.789568,15.08838892,.00013228,53.1607,54.6780,105.6957,254.4181,0,U,50192,999,25503,.12467034E-3,.1697E-4,0
STARLINK-3261,2021-125AP,2026-07-09T00:00:02.000160,15.14267712,.0000728,53.1594,54.2581,133.7648,274.8043,0,U,50193,999,581,.31865815E-2,.59153E-3,0
STARLINK-3266,2021-125AR,2026-07-08T20:38:32.864640,15.09161802,.00017759,53.1613,54.9418,105.2424,254.8764,0,U,50195,999,25502,.25989762E-2,.41688E-3,0
STARLINK-3267,2021-125AT,2026-07-08T20:17:48.002208,15.08835176,.0001248,53.1610,55.0097,91.4147,268.6987,0,U,50197,999,25507,.53958893E-4,.571E-5,0
STARLINK-3264,2021-125AU,2026-07-08T21:32:00.779136,15.08832799,.00012954,53.1610,54.7770,78.8559,281.2578,0,U,50198,999,25503,.19189302E-3,.2767E-4,0
STARLINK-3270,2021-125AV,2026-07-08T22:40:51.936384,15.08862059,.00014007,53.1611,54.5595,67.2752,292.8388,0,U,50199,999,25503,.34885238E-3,.5272E-4,0
STARLINK-3235,2021-125AW,2026-07-08T21:35:53.592576,15.09538782,.00012145,53.1608,54.7180,107.0502,253.0623,0,U,50200,999,25504,.47020477E-2,.76824E-3,0
STARLINK-3256,2021-125AY,2026-07-09T00:00:02.000160,15.13313135,.00014344,53.1604,54.2777,122.1133,216.1528,0,U,50202,999,555,.33825642E-2,.6116E-3,0
STARLINK-3257,2021-125AZ,2026-07-09T00:00:02.000160,15.15848217,.00019167,53.1614,54.3014,63.5370,121.9887,0,U,50203,999,576,.34593673E-2,.67266E-3,0
STARLINK-3254,2021-125BA,2026-07-09T00:00:02.000160,15.14716261,.00015267,53.1594,54.2558,93.3402,215.8134,0,U,50204,999,580,.3414805E-2,.64267E-3,0
STARLINK-3260,2021-125BB,2026-07-08T22:56:50.283456,15.08839696,.00014593,53.1613,24.5116,88.5615,271.5544,0,U,50205,999,25546,.70443355E-4,.833E-5,0
STARLINK-3323,2022-001B,2026-07-08T17:01:46.049664,15.08818913,.00014169,53.1614,335.6215,90.5452,269.5702,0,U,50804,999,24881,.17885326E-3,.2558E-4,0
STARLINK-3333,2022-001C,2026-07-08T16:56:27.809088,15.08826056,.00013334,53.1612,335.6364,97.9509,262.1634,0,U,50805,999,24881,.14232419E-3,.1977E-4,0
STARLINK-3335,2022-001D,2026-07-08T15:15:46.223424,15.08827153,.00012537,53.1616,335.9522,95.0716,265.0418,0,U,50806,999,24880,.19733035E-3,.2853E-4,0
STARLINK-3355,2022-001F,2026-07-09T00:00:02.000160,15.24500694,.0002247,53.1586,333.8023,71.5662,51.9222,0,U,50808,999,575,.22378787E-2,.55821E-3,0
STARLINK-3232,2022-001G,2026-07-09T00:00:02.000160,15.24938314,.00020499,53.1596,333.7418,70.1016,64.4933,0,U,50809,999,581,.7816905E-3,.19437E-3,0
STARLINK-3338,2022-001K,2026-07-08T17:22:58.570464,15.08824615,.00012831,53.1610,335.6581,94.2143,265.8995,0,U,50812,999,24881,.11419968E-3,.1529E-4,0
STARLINK-3349,2022-001L,2026-07-08T17:42:38.556000,15.48051575,.00041019,53.2011,271.6093,340.2517,19.8333,0,U,50813,999,24973,.48312357E-3,.25357E-3,0
STARLINK-3324,2022-001M,2026-07-08T17:26:54.016512,15.08834748,.00011711,53.1618,345.5432,92.6906,267.4219,0,U,50814,999,24868,.47325031E-4,.465E-5,0
STARLINK-3234,2022-001N,2026-07-08T17:42:48.380544,15.08834359,.00010927,53.1615,345.4926,91.0690,269.0427,0,U,50815,999,24868,.678639E-5,-.18E-5,0
STARLINK-3342,2022-001P,2026-07-08T17:12:59.980896,15.18644137,.00014967,53.2134,338.1945,173.1870,186.9147,0,U,50816,999,24878,.89550383E-3,.18506E-3,0
STARLINK-3341,2022-001Q,2026-07-09T00:00:02.000160,15.15660728,.00017684,53.1605,344.1358,66.0385,28.4460,0,U,50817,999,554,.1644244E-2,.31481E-3,0
STARLINK-3336,2022-001R,2026-07-09T00:00:02.000160,15.14447658,.00015366,53.1603,344.2342,19.3637,126.5255,0,U,50818,999,581,.14790043E-2,.27309E-3,0
STARLINK-3327,2022-001S,2026-07-09T00:00:02.000160,15.16915771,.00012802,53.1605,344.1113,91.3580,78.2563,0,U,50819,999,581,.15342042E-2,.30425E-3,0
STARLINK-3339,2022-001T,2026-07-08T16:55:08.105952,15.08827574,.00011879,53.1617,345.6404,95.4198,264.6929,0,U,50820,999,24867,.11799902E-3,.159E-4,0
STARLINK-3346,2022-001U,2026-07-08T17:53:24.058176,15.08832288,.00011418,53.1611,345.3436,94.2814,265.8308,0,U,50821,999,24868,.13274845E-3,.1825E-4,0
STARLINK-3343,2022-001V,2026-07-08T16:44:31.919424,15.08831975,.00012192,53.1617,345.6734,80.3060,279.8070,0,U,50822,999,24867,.16925121E-3,.2406E-4,0
STARLINK-3334,2022-001W,2026-07-09T00:00:02.000160,15.16911536,.00011393,53.1606,344.1295,47.9230,72.4692,0,U,50823,999,571,.14450402E-2,.28628E-3,0
STARLINK-3332,2022-001Y,2026-07-08T16:49:50.299104,15.08825248,.00011544,53.1611,345.6565,81.4212,278.6910,0,U,50825,999,24867,.1001217E-3,.1305E-4,0
STARLINK-3329,2022-001AA,2026-07-09T00:00:02.000160,15.17951353,.00019185,53.1594,344.1367,96.8251,119.6527,0,U,50827,999,581,.10258038E-2,.20828E-3,0
STARLINK-3290,2022-001AB,2026-07-08T16:45:53.903520,15.08827075,.00010311,53.1612,345.5607,77.1143,282.9964,0,U,50828,999,24852,.11214007E-3,.1497E-4,0
STARLINK-3294,2022-001AC,2026-07-09T00:00:02.000160,15.18160178,.0000678,53.1590,344.0180,97.9288,139.5370,0,U,50829,999,581,.11750644E-2,.24061E-3,0
STARLINK-3278,2022-001AD,2026-07-09T00:00:02.000160,15.33438835,.00009062,53.1595,352.8523,94.3173,288.2128,0,U,50830,999,560,.17192775E-2,.56399E-3,0
STARLINK-3299,2022-001AE,2026-07-09T00:00:02.000160,15.15021700,.00010138,53.1595,344.2904,98.0101,233.3818,0,U,50831,999,580,.10936074E-2,.20426E-3,0
STARLINK-3328,2022-001AF,2026-07-08T19:06:34.129440,15.09689535,.00004426,53.1728,355.2353,106.9192,253.1848,0,U,50832,999,24855,.93969255E-3,.15051E-3,0
STARLINK-3331,2022-001AH,2026-07-09T00:00:02.000160,15.28943069,.00009723,53.1606,353.0510,81.2085,283.2445,0,U,50834,999,581,.17985612E-2,.51244E-3,0
STARLINK-3310,2022-001AJ,2026-07-08T17:33:42.783552,15.11288360,.00005891,53.2158,355.2205,107.3932,252.7125,0,U,50835,999,24854,.10582879E-2,.17769E-3,0
STARLINK-3330,2022-001AK,2026-07-09T00:00:02.000160,15.31686168,.00012208,53.1597,351.9722,64.4086,111.8110,0,U,50836,999,581,.28263857E-3,.8412E-4,0
STARLINK-3318,2022-001AL,2026-07-09T00:00:02.000160,15.16190485,.00009367,53.1600,344.1497,117.5715,231.1552,0,U,50837,999,580,.96813155E-3,.18658E-3,0
STARLINK-3320,2022-001AN,2026-07-09T00:00:02.000160,15.31711637,.00010219,53.1585,351.9534,91.0411,213.7623,0,U,50839,999,581,.88452069E-4,.2382E-4,0
STARLINK-3295,2022-001AP,2026-07-09T00:00:02.000160,15.31190570,.00020548,53.1609,353.0582,59.9506,57.2486,0,U,50840,999,580,.2835912E-2,.87272E-3,0
STARLINK-3300,2022-001AQ,2026-07-09T00:00:02.000160,15.31459709,.00019142,53.1605,352.9628,67.8234,38.7806,0,U,50841,999,581,.28362939E-2,.88029E-3,0
STARLINK-3302,2022-001AR,2026-07-09T00:00:02.000160,15.31713862,.00007834,53.1583,351.9811,61.2943,269.1480,0,U,50842,999,571,.16348934E-3,.4714E-4,0
STARLINK-3326,2022-001AT,2026-07-09T00:00:02.000160,15.29905411,.00015114,53.1586,353.0161,116.1849,101.9081,0,U,50844,999,580,.25873731E-2,.76362E-3,0
STARLINK-3230,2022-001AU,2026-07-08T17:59:44.418624,15.30993930,.00095459,53.1594,353.5483,161.5768,198.5580,0,U,50845,999,24857,.72104099E-2,.225462E-2,0
STARLINK-3308,2022-001AV,2026-07-09T00:00:02.000160,15.31707831,.00009043,53.1600,351.9834,68.5728,339.1154,0,U,50846,999,561,.35445719E-3,.10653E-3,0
STARLINK-3315,2022-001AX,2026-07-09T00:00:02.000160,15.24966976,.00011753,53.1607,353.5864,82.7170,242.8432,0,U,50848,999,580,.1641701E-2,.41354E-3,0
STARLINK-3311,2022-001AY,2026-07-09T00:00:02.000160,15.30873246,.00010481,53.1586,352.9055,130.9747,124.2686,0,U,50849,999,580,.24274919E-2,.73781E-3,0
STARLINK-3312,2022-001AZ,2026-07-08T14:35:58.357248,15.21078734,.00021975,53.1616,315.1824,35.0377,325.0764,0,U,50850,999,24963,.11648219E-2,.25983E-3,0
STARLINK-3314,2022-001BA,2026-07-09T00:00:02.000160,15.31745631,.00007199,53.1594,352.9907,162.7218,128.4776,0,U,50851,999,581,.2738069E-2,.85703E-3,0
STARLINK-3366,2022-005A,2026-07-08T22:42:17.168256,15.09977795,.0001259,53.1900,104.5351,111.2734,248.8393,0,U,51104,999,24718,.4978316E-3,.7893E-4,0
STARLINK-3350,2022-005B,2026-07-08T22:23:40.123392,15.08833064,.00012689,53.1610,104.6116,90.1807,269.9330,0,U,51105,999,24718,.3014282E-5,-.24E-5,0
STARLINK-3176,2022-005C,2026-07-08T21:51:53.450784,15.08833391,.00012291,53.1595,104.7136,70.7839,289.3285,0,U,51106,999,24717,.86722962E-4,.1092E-4,0
STARLINK-3362,2022-005E,2026-07-08T22:18:22.170528,15.08833129,.00012394,53.1601,104.6297,94.1127,266.0007,0,U,51108,999,24718,.37505563E-4,.309E-5,0
STARLINK-3358,2022-005F,2026-07-08T22:44:51.855360,15.08827482,.0001333,53.1602,104.4976,85.3759,274.7384,0,U,51109,999,24695,.48056396E-4,.477E-5,0
STARLINK-3344,2022-005G,2026-07-08T22:02:28.915008,15.08831651,.00016942,53.1607,104.6554,92.7170,267.4015,0,U,51110,999,24718,.47025018E-4,.46E-5,0
STARLINK-3173,2022-005H,2026-07-08T11:58:22.675584,15.08832284,.00017527,53.1594,106.5639,97.3546,262.7644,0,U,51111,999,24711,.13471575E-3,.1856E-4,0
